OBJECT_NAME,OBJECT_ID,EPOCH,MEAN_MOTION,ECCENTRICITY,INCLINATION,RA_OF_ASC_NODE,ARG_OF_PERICENTER,MEAN_ANOMALY,EPHEMERIS_TYPE,CLASSIFICATION_TYPE,NORAD_CAT_ID,ELEMENT_SET_NO,REV_AT_EPOCH,BSTAR,MEAN_MOTION_DOT,MEAN_MOTION_DDOT
IRIDIUM 33 DEB,1997-051ZB,2024-09-14T10:16:51.466080,14.86785336,0.0003598,86.3051,151.2729,100.3132,259.8498,0,U,38227,999,59179,1.7705E-02,1.6126E-03,0
IRIDIUM 33 DEB,1997-051ZC,2024-10-09T04:50:59.083008,14.25896883,0.0066977,86.2965,230.7455,131.6268,296.0947,0,U,38228,999,78657,2.2578E-03,5.523E-05,0
IRIDIUM 33 DEB,1997-051ZD,2024-09-30T01:46:00.609024,14.18530016,0.017346,86.3697,44.0102,338.2951,21.0944,0,U,38229,999,50738,9.8745E-03,2.378E-04,0
IRIDIUM 33 DEB,1997-051ZL,2024-10-08T09:34:09.170400,14.74786255,0.003672,86.2495,164.4209,217.0126,142.8559,0,U,38236,999,55359,6.198E-02,4.42061E-03,0
IRIDIUM 33 DEB,1997-051ZR,2024-10-09T10:43:07.753728,14.50323462,0.0006002,86.3290,179.3004,61.3008,298.8800,0,U,38241,999,53967,4.0283E-03,1.5747E-04,0
IRIDIUM 33 DEB,1997-051AAB,2024-10-07T11:40:56.324928,14.47066722,0.0029875,86.3493,197.4271,85.4834,274.9781,0,U,38474,999,59072,2.9802E-03,1.0939E-04,0
IRIDIUM 33 DEB,1997-051AAE,2024-10-03T05:46:35.049216,13.52248897,0.0434819,86.4029,265.4729,51.1419,312.7697,0,U,38477,999,70769,1.5868E-02,1.9039E-04,0
IRIDIUM 33 DEB,1997-051AAJ,2024-10-08T13:33:22.864608,14.42980615,0.0074428,85.9704,21.9995,183.4405,176.6294,0,U,39777,999,56661,2.3415E-02,8.193E-04,0
IRIDIUM 33 DEB,1997-051AAK,2024-10-09T03:11:58.643232,14.48660127,0.0011141,86.3812,228.8331,43.6321,316.5762,0,U,39778,999,57183,4.2421E-03,1.6023E-04,0
IRIDIUM 33 DEB,1997-051AAN,2024-09-28T06:03:51.159744,14.05658456,0.0221327,86.3787,77.8944,222.2617,315.9964,0,U,39781,999,1875,1.4089E-02,2.8715E-04,0
IRIDIUM 33 DEB,1997-051AAQ,2024-10-09T06:15:56.090304,14.64927617,0.0040626,86.1559,105.4532,246.2990,290.7384,0,U,39783,999,54400,1.6373E-02,8.9714E-04,0
IRIDIUM 33 DEB,1997-051AAZ,2024-09-14T09:09:08.463744,14.36534313,0.012434,86.4092,47.3970,115.2985,246.1155,0,U,39792,999,52865,4.8453E-02,1.58795E-03,0
IRIDIUM 33 DEB,1997-051ABL,2024-10-01T15:50:44.153664,14.42155010,0.0010774,86.3827,239.8534,83.6499,40.7976,0,U,40998,999,802,2.2455E-03,7.414E-05,0
IRIDIUM 33 DEB,1997-051ABN,2024-10-04T01:09:53.271936,14.11902237,0.0252273,86.2853,18.4032,228.4106,313.1216,0,U,46435,999,1731,3.3945E-02,8.4599E-04,0
IRIDIUM 33 DEB,1997-051ABR,2024-10-04T00:56:55.923360,14.37382980,0.0043458,86.2713,193.0006,326.1505,48.8403,0,U,46734,999,56754,4.8127E-03,1.4567E-04,0
IRIDIUM 33 DEB,1997-051ABX,2024-10-07T11:07:15.136032,14.55169880,0.0021845,86.3433,171.1972,354.1700,179.7931,0,U,46965,999,55983,4.17E-03,1.8127E-04,0
IRIDIUM 33 DEB,1997-051ACD,2024-10-03T11:09:12.342816,14.71725703,0.001582,86.3486,173.3132,24.6551,152.2788,0,U,46971,999,66579,8.0222E-03,5.046E-04,0
IRIDIUM 33 DEB,1997-051ACE,2024-10-07T14:43:10.253568,14.47316702,0.0012545,86.3918,224.4394,99.3719,24.3382,0,U,46972,999,71414,3.4643E-03,1.2723E-04,0
IRIDIUM 33 DEB,1997-051ACG,2024-10-08T07:34:27.521184,14.30869854,0.0115172,86.3034,291.1215,156.3357,204.3196,0,U,46974,999,51320,5.9849E-02,1.72922E-03,0
