IRIDIUM 33 DEB          
1 38227U 97051ZB  24258.42837345  .00161260  00000+0  17705-1 0  9997
2 38227  86.3051 151.2729 0003598 100.3132 259.8498 14.86785336591796
IRIDIUM 33 DEB          
1 38228U 97051ZC  24283.20207272  .00005523  00000+0  22578-2 0  9996
2 38228  86.2965 230.7455 0066977 131.6268 296.0947 14.25896883786573
IRIDIUM 33 DEB          
1 38229U 97051ZD  24274.07361816  .00023780  00000+0  98745-2 0  9991
2 38229  86.3697  44.0102 0173460 338.2951  21.0944 14.18530016507380
IRIDIUM 33 DEB          
1 38236U 97051ZL  24282.39871725  .00442061  00000+0  61980-1 0  9995
2 38236  86.2495 164.4209 0036720 217.0126 142.8559 14.74786255553591
IRIDIUM 33 DEB          
1 38241U 97051ZR  24283.44661752  .00015747  00000+0  40283-2 0  9996
2 38241  86.3290 179.3004 0006002  61.3008 298.8800 14.50323462776328
IRIDIUM 33 DEB          
1 38474U 97051AAB 24281.48676302  .00010939  00000+0  29802-2 0  9995
2 38474  86.3493 197.4271 0029875  85.4834 274.9781 14.47066722590725
IRIDIUM 33 DEB          
1 38477U 97051AAE 24277.24068344  .00019039  00000+0  15868-1 0  9994
2 38477  86.4029 265.4729 0434819  51.1419 312.7697 13.52248897707698
IRIDIUM 33 DEB          
1 39777U 97051AAJ 24282.56484797  .00081930  00000+0  23415-1 0  9999
2 39777  85.9704  21.9995 0074428 183.4405 176.6294 14.42980615566612
IRIDIUM 33 DEB          
1 39778U 97051AAK 24283.13331763  .00016023  00000+0  42421-2 0  9998
2 39778  86.3812 228.8331 0011141  43.6321 316.5762 14.48660127571831
IRIDIUM 33 DEB          
1 39781U 97051AAN 24272.25267546  .00028715  00000+0  14089-1 0  9999
2 39781  86.3787  77.8944 0221327 222.2617 315.9964 14.05658456 18759
IRIDIUM 33 DEB          
1 39783U 97051AAQ 24283.26106586  .00089714  00000+0  16373-1 0  9994
2 39783  86.1559 105.4532 0040626 246.2990 290.7384 14.64927617544009
IRIDIUM 33 DEB          
1 39792U 97051AAZ 24258.38134796  .00158795  00000+0  48453-1 0  9993
2 39792  86.4092  47.3970 0124340 115.2985 246.1155 14.36534313528659
IRIDIUM 33 DEB          
1 40998U 97051ABL 24275.66023326  .00007414  00000+0  22455-2 0  9995
2 40998  86.3827 239.8534 0010774  83.6499  40.7976 14.42155010  8024
IRIDIUM 33 DEB          
1 46435U 97051ABN 24278.04853324  .00084599  00000+0  33945-1 0  9995
2 46435  86.2853  18.4032 0252273 228.4106 313.1216 14.11902237 17317
IRIDIUM 33 DEB          
1 46734U 97051ABR 24278.03953615  .00014567  00000+0  48127-2 0  9997
2 46734  86.2713 193.0006 0043458 326.1505  48.8403 14.37382980567547
IRIDIUM 33 DEB          
1 46965U 97051ABX 24281.46336963  .00018127  00000+0  41700-2 0  9991
2 46965  86.3433 171.1972 0021845 354.1700 179.7931 14.55169880559831
IRIDIUM 33 DEB          
1 46971U 97051ACD 24277.46472619  .00050460  00000+0  80222-2 0  9990
2 46971  86.3486 173.3132 0015820  24.6551 152.2788 14.71725703665796
IRIDIUM 33 DEB          
1 46972U 97051ACE 24281.61331312  .00012723  00000+0  34643-2 0  9993
2 46972  86.3918 224.4394 0012545  99.3719  24.3382 14.47316702714142
IRIDIUM 33 DEB          
1 46974U 97051ACG 24282.31559631  .00172922  00000+0  59849-1 0  9991
2 46974  86.3034 291.1215 0115172 156.3357 204.3196 14.30869854513208
